{
  "type": "FeatureCollection",
  "features": [
    {
      "type": "Feature",
      "geometry": {
        "type": "Point",
        "coordinates": [
          -99.22256,
          19.3267187
        ]
      },
      "properties": {
        "id": "003-0",
        "alcaldia": "La Magdalena Contreras",
        "start": null,
        "end": null,
        "kind": "baja_presion",
        "reason": "Cuarta reducción del caudal del Sistema Cutzamala durante el estiaje",
        "confidence": 1.0,
        "source_title": "Chilango - La Magdalena Contreras advierte corte de agua en varias colonias",
        "source_id": "003",
        "colonia": "San Jerónimo Aculco-Lídice",
        "colonias": [
          "San Jerónimo Aculco-Lídice",
          "Barrio San Francisco",
          "San Francisco",
          "La Cruz",
          "La Concepción",
          "Plazuela del Pedregal",
          "San Bartolo Ameyalco",
          "Cuauhtémoc",
          "Lomas Quebradas",
          "Heroes de Padierna",
          "Los Padres",
          "El Tanque",
          "Las Cruces",
          "San Bernabé Ocotepec",
          "Atacaxco",
          "El Rosal",
          "Vista Hermosa",
          "Las Palmas",
          "Barros Sierra"
        ]
      }
    },
    {
      "type": "Feature",
      "geometry": {
        "type": "Point",
        "coordinates": [
          -99.2458102,
          19.3023536
        ]
      },
      "properties": {
        "id": "003-0",
        "alcaldia": "La Magdalena Contreras",
        "start": null,
        "end": null,
        "kind": "baja_presion",
        "reason": "Cuarta reducción del caudal del Sistema Cutzamala durante el estiaje",
        "confidence": 1.0,
        "source_title": "Chilango - La Magdalena Contreras advierte corte de agua en varias colonias",
        "source_id": "003",
        "colonia": "San Francisco",
        "colonias": [
          "San Jerónimo Aculco-Lídice",
          "Barrio San Francisco",
          "San Francisco",
          "La Cruz",
          "La Concepción",
          "Plazuela del Pedregal",
          "San Bartolo Ameyalco",
          "Cuauhtémoc",
          "Lomas Quebradas",
          "Heroes de Padierna",
          "Los Padres",
          "El Tanque",
          "Las Cruces",
          "San Bernabé Ocotepec",
          "Atacaxco",
          "El Rosal",
          "Vista Hermosa",
          "Las Palmas",
          "Barros Sierra"
        ]
      }
    },
    {
      "type": "Feature",
      "geometry": {
        "type": "Point",
        "coordinates": [
          -99.2354964,
          19.3054313
        ]
      },
      "properties": {
        "id": "003-0",
        "alcaldia": "La Magdalena Contreras",
        "start": null,
        "end": null,
        "kind": "baja_presion",
        "reason": "Cuarta reducción del caudal del Sistema Cutzamala durante el estiaje",
        "confidence": 1.0,
        "source_title": "Chilango - La Magdalena Contreras advierte corte de agua en varias colonias",
        "source_id": "003",
        "colonia": "La Cruz",
        "colonias": [
          "San Jerónimo Aculco-Lídice",
          "Barrio San Francisco",
          "San Francisco",
          "La Cruz",
          "La Concepción",
          "Plazuela del Pedregal",
          "San Bartolo Ameyalco",
          "Cuauhtémoc",
          "Lomas Quebradas",
          "Heroes de Padierna",
          "Los Padres",
          "El Tanque",
          "Las Cruces",
          "San Bernabé Ocotepec",
          "Atacaxco",
          "El Rosal",
          "Vista Hermosa",
          "Las Palmas",
          "Barros Sierra"
        ]
      }
    },
    {
      "type": "Feature",
      "geometry": {
        "type": "Point",
        "coordinates": [
          -99.2348245,
          19.3043519
        ]
      },
      "properties": {
        "id": "003-0",
        "alcaldia": "La Magdalena Contreras",
        "start": null,
        "end": null,
        "kind": "baja_presion",
        "reason": "Cuarta reducción del caudal del Sistema Cutzamala durante el estiaje",
        "confidence": 1.0,
        "source_title": "Chilango - La Magdalena Contreras advierte corte de agua en varias colonias",
        "source_id": "003",
        "colonia": "La Concepción",
        "colonias": [
          "San Jerónimo Aculco-Lídice",
          "Barrio San Francisco",
          "San Francisco",
          "La Cruz",
          "La Concepción",
          "Plazuela del Pedregal",
          "San Bartolo Ameyalco",
          "Cuauhtémoc",
          "Lomas Quebradas",
          "Heroes de Padierna",
          "Los Padres",
          "El Tanque",
          "Las Cruces",
          "San Bernabé Ocotepec",
          "Atacaxco",
          "El Rosal",
          "Vista Hermosa",
          "Las Palmas",
          "Barros Sierra"
        ]
      }
    },
    {
      "type": "Feature",
      "geometry": {
        "type": "Point",
        "coordinates": [
          -99.2325865,
          19.304135
        ]
      },
      "properties": {
        "id": "003-0",
        "alcaldia": "La Magdalena Contreras",
        "start": null,
        "end": null,
        "kind": "baja_presion",
        "reason": "Cuarta reducción del caudal del Sistema Cutzamala durante el estiaje",
        "confidence": 1.0,
        "source_title": "Chilango - La Magdalena Contreras advierte corte de agua en varias colonias",
        "source_id": "003",
        "colonia": "Plazuela del Pedregal",
        "colonias": [
          "San Jerónimo Aculco-Lídice",
          "Barrio San Francisco",
          "San Francisco",
          "La Cruz",
          "La Concepción",
          "Plazuela del Pedregal",
          "San Bartolo Ameyalco",
          "Cuauhtémoc",
          "Lomas Quebradas",
          "Heroes de Padierna",
          "Los Padres",
          "El Tanque",
          "Las Cruces",
          "San Bernabé Ocotepec",
          "Atacaxco",
          "El Rosal",
          "Vista Hermosa",
          "Las Palmas",
          "Barros Sierra"
        ]
      }
    },
    {
      "type": "Feature",
      "geometry": {
        "type": "Point",
        "coordinates": [
          -99.2448388,
          19.3268119
        ]
      },
      "properties": {
        "id": "003-0",
        "alcaldia": "La Magdalena Contreras",
        "start": null,
        "end": null,
        "kind": "baja_presion",
        "reason": "Cuarta reducción del caudal del Sistema Cutzamala durante el estiaje",
        "confidence": 1.0,
        "source_title": "Chilango - La Magdalena Contreras advierte corte de agua en varias colonias",
        "source_id": "003",
        "colonia": "San Bartolo Ameyalco",
        "colonias": [
          "San Jerónimo Aculco-Lídice",
          "Barrio San Francisco",
          "San Francisco",
          "La Cruz",
          "La Concepción",
          "Plazuela del Pedregal",
          "San Bartolo Ameyalco",
          "Cuauhtémoc",
          "Lomas Quebradas",
          "Heroes de Padierna",
          "Los Padres",
          "El Tanque",
          "Las Cruces",
          "San Bernabé Ocotepec",
          "Atacaxco",
          "El Rosal",
          "Vista Hermosa",
          "Las Palmas",
          "Barros Sierra"
        ]
      }
    },
    {
      "type": "Feature",
      "geometry": {
        "type": "Point",
        "coordinates": [
          -99.2432805,
          19.3202511
        ]
      },
      "properties": {
        "id": "003-0",
        "alcaldia": "La Magdalena Contreras",
        "start": null,
        "end": null,
        "kind": "baja_presion",
        "reason": "Cuarta reducción del caudal del Sistema Cutzamala durante el estiaje",
        "confidence": 1.0,
        "source_title": "Chilango - La Magdalena Contreras advierte corte de agua en varias colonias",
        "source_id": "003",
        "colonia": "Cuauhtémoc",
        "colonias": [
          "San Jerónimo Aculco-Lídice",
          "Barrio San Francisco",
          "San Francisco",
          "La Cruz",
          "La Concepción",
          "Plazuela del Pedregal",
          "San Bartolo Ameyalco",
          "Cuauhtémoc",
          "Lomas Quebradas",
          "Heroes de Padierna",
          "Los Padres",
          "El Tanque",
          "Las Cruces",
          "San Bernabé Ocotepec",
          "Atacaxco",
          "El Rosal",
          "Vista Hermosa",
          "Las Palmas",
          "Barros Sierra"
        ]
      }
    },
    {
      "type": "Feature",
      "geometry": {
        "type": "Point",
        "coordinates": [
          -99.2409104,
          19.3159494
        ]
      },
      "properties": {
        "id": "003-0",
        "alcaldia": "La Magdalena Contreras",
        "start": null,
        "end": null,
        "kind": "baja_presion",
        "reason": "Cuarta reducción del caudal del Sistema Cutzamala durante el estiaje",
        "confidence": 1.0,
        "source_title": "Chilango - La Magdalena Contreras advierte corte de agua en varias colonias",
        "source_id": "003",
        "colonia": "Lomas Quebradas",
        "colonias": [
          "San Jerónimo Aculco-Lídice",
          "Barrio San Francisco",
          "San Francisco",
          "La Cruz",
          "La Concepción",
          "Plazuela del Pedregal",
          "San Bartolo Ameyalco",
          "Cuauhtémoc",
          "Lomas Quebradas",
          "Heroes de Padierna",
          "Los Padres",
          "El Tanque",
          "Las Cruces",
          "San Bernabé Ocotepec",
          "Atacaxco",
          "El Rosal",
          "Vista Hermosa",
          "Las Palmas",
          "Barros Sierra"
        ]
      }
    },
    {
      "type": "Feature",
      "geometry": {
        "type": "Point",
        "coordinates": [
          -99.2267836,
          19.3134795
        ]
      },
      "properties": {
        "id": "003-0",
        "alcaldia": "La Magdalena Contreras",
        "start": null,
        "end": null,
        "kind": "baja_presion",
        "reason": "Cuarta reducción del caudal del Sistema Cutzamala durante el estiaje",
        "confidence": 1.0,
        "source_title": "Chilango - La Magdalena Contreras advierte corte de agua en varias colonias",
        "source_id": "003",
        "colonia": "Heroes de Padierna",
        "colonias": [
          "San Jerónimo Aculco-Lídice",
          "Barrio San Francisco",
          "San Francisco",
          "La Cruz",
          "La Concepción",
          "Plazuela del Pedregal",
          "San Bartolo Ameyalco",
          "Cuauhtémoc",
          "Lomas Quebradas",
          "Heroes de Padierna",
          "Los Padres",
          "El Tanque",
          "Las Cruces",
          "San Bernabé Ocotepec",
          "Atacaxco",
          "El Rosal",
          "Vista Hermosa",
          "Las Palmas",
          "Barros Sierra"
        ]
      }
    },
    {
      "type": "Feature",
      "geometry": {
        "type": "Point",
        "coordinates": [
          -99.2495464,
          19.3196456
        ]
      },
      "properties": {
        "id": "003-0",
        "alcaldia": "La Magdalena Contreras",
        "start": null,
        "end": null,
        "kind": "baja_presion",
        "reason": "Cuarta reducción del caudal del Sistema Cutzamala durante el estiaje",
        "confidence": 1.0,
        "source_title": "Chilango - La Magdalena Contreras advierte corte de agua en varias colonias",
        "source_id": "003",
        "colonia": "Los Padres",
        "colonias": [
          "San Jerónimo Aculco-Lídice",
          "Barrio San Francisco",
          "San Francisco",
          "La Cruz",
          "La Concepción",
          "Plazuela del Pedregal",
          "San Bartolo Ameyalco",
          "Cuauhtémoc",
          "Lomas Quebradas",
          "Heroes de Padierna",
          "Los Padres",
          "El Tanque",
          "Las Cruces",
          "San Bernabé Ocotepec",
          "Atacaxco",
          "El Rosal",
          "Vista Hermosa",
          "Las Palmas",
          "Barros Sierra"
        ]
      }
    },
    {
      "type": "Feature",
      "geometry": {
        "type": "Point",
        "coordinates": [
          -99.2469899,
          19.3249381
        ]
      },
      "properties": {
        "id": "003-0",
        "alcaldia": "La Magdalena Contreras",
        "start": null,
        "end": null,
        "kind": "baja_presion",
        "reason": "Cuarta reducción del caudal del Sistema Cutzamala durante el estiaje",
        "confidence": 1.0,
        "source_title": "Chilango - La Magdalena Contreras advierte corte de agua en varias colonias",
        "source_id": "003",
        "colonia": "El Tanque",
        "colonias": [
          "San Jerónimo Aculco-Lídice",
          "Barrio San Francisco",
          "San Francisco",
          "La Cruz",
          "La Concepción",
          "Plazuela del Pedregal",
          "San Bartolo Ameyalco",
          "Cuauhtémoc",
          "Lomas Quebradas",
          "Heroes de Padierna",
          "Los Padres",
          "El Tanque",
          "Las Cruces",
          "San Bernabé Ocotepec",
          "Atacaxco",
          "El Rosal",
          "Vista Hermosa",
          "Las Palmas",
          "Barros Sierra"
        ]
      }
    },
    {
      "type": "Feature",
      "geometry": {
        "type": "Point",
        "coordinates": [
          -99.254654,
          19.3198351
        ]
      },
      "properties": {
        "id": "003-0",
        "alcaldia": "La Magdalena Contreras",
        "start": null,
        "end": null,
        "kind": "baja_presion",
        "reason": "Cuarta reducción del caudal del Sistema Cutzamala durante el estiaje",
        "confidence": 1.0,
        "source_title": "Chilango - La Magdalena Contreras advierte corte de agua en varias colonias",
        "source_id": "003",
        "colonia": "Las Cruces",
        "colonias": [
          "San Jerónimo Aculco-Lídice",
          "Barrio San Francisco",
          "San Francisco",
          "La Cruz",
          "La Concepción",
          "Plazuela del Pedregal",
          "San Bartolo Ameyalco",
          "Cuauhtémoc",
          "Lomas Quebradas",
          "Heroes de Padierna",
          "Los Padres",
          "El Tanque",
          "Las Cruces",
          "San Bernabé Ocotepec",
          "Atacaxco",
          "El Rosal",
          "Vista Hermosa",
          "Las Palmas",
          "Barros Sierra"
        ]
      }
    },
    {
      "type": "Feature",
      "geometry": {
        "type": "Point",
        "coordinates": [
          -99.2560658,
          19.313799
        ]
      },
      "properties": {
        "id": "003-0",
        "alcaldia": "La Magdalena Contreras",
        "start": null,
        "end": null,
        "kind": "baja_presion",
        "reason": "Cuarta reducción del caudal del Sistema Cutzamala durante el estiaje",
        "confidence": 1.0,
        "source_title": "Chilango - La Magdalena Contreras advierte corte de agua en varias colonias",
        "source_id": "003",
        "colonia": "San Bernabé Ocotepec",
        "colonias": [
          "San Jerónimo Aculco-Lídice",
          "Barrio San Francisco",
          "San Francisco",
          "La Cruz",
          "La Concepción",
          "Plazuela del Pedregal",
          "San Bartolo Ameyalco",
          "Cuauhtémoc",
          "Lomas Quebradas",
          "Heroes de Padierna",
          "Los Padres",
          "El Tanque",
          "Las Cruces",
          "San Bernabé Ocotepec",
          "Atacaxco",
          "El Rosal",
          "Vista Hermosa",
          "Las Palmas",
          "Barros Sierra"
        ]
      }
    },
    {
      "type": "Feature",
      "geometry": {
        "type": "Point",
        "coordinates": [
          -99.2516136,
          19.3154947
        ]
      },
      "properties": {
        "id": "003-0",
        "alcaldia": "La Magdalena Contreras",
        "start": null,
        "end": null,
        "kind": "baja_presion",
        "reason": "Cuarta reducción del caudal del Sistema Cutzamala durante el estiaje",
        "confidence": 1.0,
        "source_title": "Chilango - La Magdalena Contreras advierte corte de agua en varias colonias",
        "source_id": "003",
        "colonia": "Atacaxco",
        "colonias": [
          "San Jerónimo Aculco-Lídice",
          "Barrio San Francisco",
          "San Francisco",
          "La Cruz",
          "La Concepción",
          "Plazuela del Pedregal",
          "San Bartolo Ameyalco",
          "Cuauhtémoc",
          "Lomas Quebradas",
          "Heroes de Padierna",
          "Los Padres",
          "El Tanque",
          "Las Cruces",
          "San Bernabé Ocotepec",
          "Atacaxco",
          "El Rosal",
          "Vista Hermosa",
          "Las Palmas",
          "Barros Sierra"
        ]
      }
    },
    {
      "type": "Feature",
      "geometry": {
        "type": "Point",
        "coordinates": [
          -99.2497511,
          19.309682
        ]
      },
      "properties": {
        "id": "003-0",
        "alcaldia": "La Magdalena Contreras",
        "start": null,
        "end": null,
        "kind": "baja_presion",
        "reason": "Cuarta reducción del caudal del Sistema Cutzamala durante el estiaje",
        "confidence": 1.0,
        "source_title": "Chilango - La Magdalena Contreras advierte corte de agua en varias colonias",
        "source_id": "003",
        "colonia": "El Rosal",
        "colonias": [
          "San Jerónimo Aculco-Lídice",
          "Barrio San Francisco",
          "San Francisco",
          "La Cruz",
          "La Concepción",
          "Plazuela del Pedregal",
          "San Bartolo Ameyalco",
          "Cuauhtémoc",
          "Lomas Quebradas",
          "Heroes de Padierna",
          "Los Padres",
          "El Tanque",
          "Las Cruces",
          "San Bernabé Ocotepec",
          "Atacaxco",
          "El Rosal",
          "Vista Hermosa",
          "Las Palmas",
          "Barros Sierra"
        ]
      }
    },
    {
      "type": "Feature",
      "geometry": {
        "type": "Point",
        "coordinates": [
          -99.2548829,
          19.3144466
        ]
      },
      "properties": {
        "id": "003-0",
        "alcaldia": "La Magdalena Contreras",
        "start": null,
        "end": null,
        "kind": "baja_presion",
        "reason": "Cuarta reducción del caudal del Sistema Cutzamala durante el estiaje",
        "confidence": 1.0,
        "source_title": "Chilango - La Magdalena Contreras advierte corte de agua en varias colonias",
        "source_id": "003",
        "colonia": "Vista Hermosa",
        "colonias": [
          "San Jerónimo Aculco-Lídice",
          "Barrio San Francisco",
          "San Francisco",
          "La Cruz",
          "La Concepción",
          "Plazuela del Pedregal",
          "San Bartolo Ameyalco",
          "Cuauhtémoc",
          "Lomas Quebradas",
          "Heroes de Padierna",
          "Los Padres",
          "El Tanque",
          "Las Cruces",
          "San Bernabé Ocotepec",
          "Atacaxco",
          "El Rosal",
          "Vista Hermosa",
          "Las Palmas",
          "Barros Sierra"
        ]
      }
    },
    {
      "type": "Feature",
      "geometry": {
        "type": "Point",
        "coordinates": [
          -99.2506223,
          19.3134059
        ]
      },
      "properties": {
        "id": "003-0",
        "alcaldia": "La Magdalena Contreras",
        "start": null,
        "end": null,
        "kind": "baja_presion",
        "reason": "Cuarta reducción del caudal del Sistema Cutzamala durante el estiaje",
        "confidence": 1.0,
        "source_title": "Chilango - La Magdalena Contreras advierte corte de agua en varias colonias",
        "source_id": "003",
        "colonia": "Las Palmas",
        "colonias": [
          "San Jerónimo Aculco-Lídice",
          "Barrio San Francisco",
          "San Francisco",
          "La Cruz",
          "La Concepción",
          "Plazuela del Pedregal",
          "San Bartolo Ameyalco",
          "Cuauhtémoc",
          "Lomas Quebradas",
          "Heroes de Padierna",
          "Los Padres",
          "El Tanque",
          "Las Cruces",
          "San Bernabé Ocotepec",
          "Atacaxco",
          "El Rosal",
          "Vista Hermosa",
          "Las Palmas",
          "Barros Sierra"
        ]
      }
    },
    {
      "type": "Feature",
      "geometry": {
        "type": "Point",
        "coordinates": [
          -99.2485937,
          19.3170353
        ]
      },
      "properties": {
        "id": "003-0",
        "alcaldia": "La Magdalena Contreras",
        "start": null,
        "end": null,
        "kind": "baja_presion",
        "reason": "Cuarta reducción del caudal del Sistema Cutzamala durante el estiaje",
        "confidence": 1.0,
        "source_title": "Chilango - La Magdalena Contreras advierte corte de agua en varias colonias",
        "source_id": "003",
        "colonia": "Barros Sierra",
        "colonias": [
          "San Jerónimo Aculco-Lídice",
          "Barrio San Francisco",
          "San Francisco",
          "La Cruz",
          "La Concepción",
          "Plazuela del Pedregal",
          "San Bartolo Ameyalco",
          "Cuauhtémoc",
          "Lomas Quebradas",
          "Heroes de Padierna",
          "Los Padres",
          "El Tanque",
          "Las Cruces",
          "San Bernabé Ocotepec",
          "Atacaxco",
          "El Rosal",
          "Vista Hermosa",
          "Las Palmas",
          "Barros Sierra"
        ]
      }
    },
    {
      "type": "Feature",
      "geometry": {
        "type": "Point",
        "coordinates": [
          -99.2018448,
          19.4958756
        ]
      },
      "properties": {
        "id": "004-0",
        "alcaldia": "Azcapotzalco",
        "start": null,
        "end": "2026-06-30T23:59:59-06:00",
        "kind": "baja_presion",
        "reason": "Reparación de la bomba del Pozo Presidente Madero",
        "confidence": 1.0,
        "source_title": "Anuncian cortes de agua en CDMX hasta el 30 de junio: Colonias afectadas - Líder Empresarial",
        "source_id": "004",
        "colonia": "Presidente Madero",
        "colonias": [
          "Presidente Madero",
          "Miguel Hidalgo",
          "San Juan Tlihuaca",
          "Tezozomoc"
        ]
      }
    },
    {
      "type": "Feature",
      "geometry": {
        "type": "Point",
        "coordinates": [
          -99.1988243,
          19.4937154
        ]
      },
      "properties": {
        "id": "004-0",
        "alcaldia": "Azcapotzalco",
        "start": null,
        "end": "2026-06-30T23:59:59-06:00",
        "kind": "baja_presion",
        "reason": "Reparación de la bomba del Pozo Presidente Madero",
        "confidence": 1.0,
        "source_title": "Anuncian cortes de agua en CDMX hasta el 30 de junio: Colonias afectadas - Líder Empresarial",
        "source_id": "004",
        "colonia": "Miguel Hidalgo",
        "colonias": [
          "Presidente Madero",
          "Miguel Hidalgo",
          "San Juan Tlihuaca",
          "Tezozomoc"
        ]
      }
    },
    {
      "type": "Feature",
      "geometry": {
        "type": "Point",
        "coordinates": [
          -99.20495,
          19.4923006
        ]
      },
      "properties": {
        "id": "004-0",
        "alcaldia": "Azcapotzalco",
        "start": null,
        "end": "2026-06-30T23:59:59-06:00",
        "kind": "baja_presion",
        "reason": "Reparación de la bomba del Pozo Presidente Madero",
        "confidence": 1.0,
        "source_title": "Anuncian cortes de agua en CDMX hasta el 30 de junio: Colonias afectadas - Líder Empresarial",
        "source_id": "004",
        "colonia": "San Juan Tlihuaca",
        "colonias": [
          "Presidente Madero",
          "Miguel Hidalgo",
          "San Juan Tlihuaca",
          "Tezozomoc"
        ]
      }
    },
    {
      "type": "Feature",
      "geometry": {
        "type": "Point",
        "coordinates": [
          -99.1960298,
          19.4949382
        ]
      },
      "properties": {
        "id": "004-0",
        "alcaldia": "Azcapotzalco",
        "start": null,
        "end": "2026-06-30T23:59:59-06:00",
        "kind": "baja_presion",
        "reason": "Reparación de la bomba del Pozo Presidente Madero",
        "confidence": 1.0,
        "source_title": "Anuncian cortes de agua en CDMX hasta el 30 de junio: Colonias afectadas - Líder Empresarial",
        "source_id": "004",
        "colonia": "Tezozomoc",
        "colonias": [
          "Presidente Madero",
          "Miguel Hidalgo",
          "San Juan Tlihuaca",
          "Tezozomoc"
        ]
      }
    },
    {
      "type": "Feature",
      "geometry": {
        "type": "Point",
        "coordinates": [
          -98.9642238,
          19.2254045
        ]
      },
      "properties": {
        "id": "004-1",
        "alcaldia": "Tláhuac",
        "start": null,
        "end": "2026-06-26T17:00:00-06:00",
        "kind": "baja_presion",
        "reason": "Sustitución del equipo de bombeo del Pozo Tecomitl 20",
        "confidence": 1.0,
        "source_title": "Anuncian cortes de agua en CDMX hasta el 30 de junio: Colonias afectadas - Líder Empresarial",
        "source_id": "004",
        "colonia": "San Andrés Mixquic",
        "colonias": [
          "San Andrés Mixquic",
          "San Nicolás Tetelco",
          "San Juan Ixtayopan",
          "San Pedro Tláhuac",
          "San Francisco Tlaltenco"
        ]
      }
    },
    {
      "type": "Feature",
      "geometry": {
        "type": "Point",
        "coordinates": [
          -98.9760954,
          19.217864
        ]
      },
      "properties": {
        "id": "004-1",
        "alcaldia": "Tláhuac",
        "start": null,
        "end": "2026-06-26T17:00:00-06:00",
        "kind": "baja_presion",
        "reason": "Sustitución del equipo de bombeo del Pozo Tecomitl 20",
        "confidence": 1.0,
        "source_title": "Anuncian cortes de agua en CDMX hasta el 30 de junio: Colonias afectadas - Líder Empresarial",
        "source_id": "004",
        "colonia": "San Nicolás Tetelco",
        "colonias": [
          "San Andrés Mixquic",
          "San Nicolás Tetelco",
          "San Juan Ixtayopan",
          "San Pedro Tláhuac",
          "San Francisco Tlaltenco"
        ]
      }
    },
    {
      "type": "Feature",
      "geometry": {
        "type": "Point",
        "coordinates": [
          -98.9960494,
          19.2411387
        ]
      },
      "properties": {
        "id": "004-1",
        "alcaldia": "Tláhuac",
        "start": null,
        "end": "2026-06-26T17:00:00-06:00",
        "kind": "baja_presion",
        "reason": "Sustitución del equipo de bombeo del Pozo Tecomitl 20",
        "confidence": 1.0,
        "source_title": "Anuncian cortes de agua en CDMX hasta el 30 de junio: Colonias afectadas - Líder Empresarial",
        "source_id": "004",
        "colonia": "San Juan Ixtayopan",
        "colonias": [
          "San Andrés Mixquic",
          "San Nicolás Tetelco",
          "San Juan Ixtayopan",
          "San Pedro Tláhuac",
          "San Francisco Tlaltenco"
        ]
      }
    },
    {
      "type": "Feature",
      "geometry": {
        "type": "Point",
        "coordinates": [
          -99.0046823,
          19.2690889
        ]
      },
      "properties": {
        "id": "004-1",
        "alcaldia": "Tláhuac",
        "start": null,
        "end": "2026-06-26T17:00:00-06:00",
        "kind": "baja_presion",
        "reason": "Sustitución del equipo de bombeo del Pozo Tecomitl 20",
        "confidence": 1.0,
        "source_title": "Anuncian cortes de agua en CDMX hasta el 30 de junio: Colonias afectadas - Líder Empresarial",
        "source_id": "004",
        "colonia": "San Pedro Tláhuac",
        "colonias": [
          "San Andrés Mixquic",
          "San Nicolás Tetelco",
          "San Juan Ixtayopan",
          "San Pedro Tláhuac",
          "San Francisco Tlaltenco"
        ]
      }
    },
    {
      "type": "Feature",
      "geometry": {
        "type": "Point",
        "coordinates": [
          -99.016226,
          19.2975409
        ]
      },
      "properties": {
        "id": "004-1",
        "alcaldia": "Tláhuac",
        "start": null,
        "end": "2026-06-26T17:00:00-06:00",
        "kind": "baja_presion",
        "reason": "Sustitución del equipo de bombeo del Pozo Tecomitl 20",
        "confidence": 1.0,
        "source_title": "Anuncian cortes de agua en CDMX hasta el 30 de junio: Colonias afectadas - Líder Empresarial",
        "source_id": "004",
        "colonia": "San Francisco Tlaltenco",
        "colonias": [
          "San Andrés Mixquic",
          "San Nicolás Tetelco",
          "San Juan Ixtayopan",
          "San Pedro Tláhuac",
          "San Francisco Tlaltenco"
        ]
      }
    },
    {
      "type": "Feature",
      "geometry": {
        "type": "Point",
        "coordinates": [
          -99.2030859,
          19.3052509
        ]
      },
      "properties": {
        "id": "006-1",
        "alcaldia": "Coyoacán",
        "start": null,
        "end": null,
        "kind": "tandeo",
        "reason": "Programa de agua por tandeo durante noviembre",
        "confidence": 1.0,
        "source_title": "Estas son las colonias de la CDMX que se quedarán sin agua durante el mes de noviembre",
        "source_id": "006",
        "colonia": "Adolfo Ruíz Cortines",
        "colonias": [
          "Adolfo Ruíz Cortines",
          "Pedregal de Santa Úrsula",
          "Pedregal de Santo Domingo",
          "Ajusco"
        ]
      }
    },
    {
      "type": "Feature",
      "geometry": {
        "type": "Point",
        "coordinates": [
          -99.1678565,
          19.3271575
        ]
      },
      "properties": {
        "id": "006-1",
        "alcaldia": "Coyoacán",
        "start": null,
        "end": null,
        "kind": "tandeo",
        "reason": "Programa de agua por tandeo durante noviembre",
        "confidence": 1.0,
        "source_title": "Estas son las colonias de la CDMX que se quedarán sin agua durante el mes de noviembre",
        "source_id": "006",
        "colonia": "Pedregal de Santo Domingo",
        "colonias": [
          "Adolfo Ruíz Cortines",
          "Pedregal de Santa Úrsula",
          "Pedregal de Santo Domingo",
          "Ajusco"
        ]
      }
    },
    {
      "type": "Feature",
      "geometry": {
        "type": "Point",
        "coordinates": [
          -99.1609606,
          19.3190897
        ]
      },
      "properties": {
        "id": "006-1",
        "alcaldia": "Coyoacán",
        "start": null,
        "end": null,
        "kind": "tandeo",
        "reason": "Programa de agua por tandeo durante noviembre",
        "confidence": 1.0,
        "source_title": "Estas son las colonias de la CDMX que se quedarán sin agua durante el mes de noviembre",
        "source_id": "006",
        "colonia": "Ajusco",
        "colonias": [
          "Adolfo Ruíz Cortines",
          "Pedregal de Santa Úrsula",
          "Pedregal de Santo Domingo",
          "Ajusco"
        ]
      }
    },
    {
      "type": "Feature",
      "geometry": {
        "type": "Point",
        "coordinates": [
          -99.1308155,
          19.5763052
        ]
      },
      "properties": {
        "id": "006-2",
        "alcaldia": "Gustavo A. Madero",
        "start": null,
        "end": null,
        "kind": "tandeo",
        "reason": "Programa de agua por tandeo durante noviembre",
        "confidence": 1.0,
        "source_title": "Estas son las colonias de la CDMX que se quedarán sin agua durante el mes de noviembre",
        "source_id": "006",
        "colonia": "Ampliación Arboledas Cuautepec",
        "colonias": [
          "Ampliación Arboledas Cuautepec",
          "Ampliación Pradera",
          "La Casilla",
          "La Pastora",
          "La Providencia",
          "Ampliación Malacates",
          "Cuautepec Centro",
          "Luis Donaldo Colosio M"
        ]
      }
    },
    {
      "type": "Feature",
      "geometry": {
        "type": "Point",
        "coordinates": [
          -99.0753065,
          19.479849
        ]
      },
      "properties": {
        "id": "006-2",
        "alcaldia": "Gustavo A. Madero",
        "start": null,
        "end": null,
        "kind": "tandeo",
        "reason": "Programa de agua por tandeo durante noviembre",
        "confidence": 1.0,
        "source_title": "Estas son las colonias de la CDMX que se quedarán sin agua durante el mes de noviembre",
        "source_id": "006",
        "colonia": "Ampliación Pradera",
        "colonias": [
          "Ampliación Arboledas Cuautepec",
          "Ampliación Pradera",
          "La Casilla",
          "La Pastora",
          "La Providencia",
          "Ampliación Malacates",
          "Cuautepec Centro",
          "Luis Donaldo Colosio M"
        ]
      }
    },
    {
      "type": "Feature",
      "geometry": {
        "type": "Point",
        "coordinates": [
          -99.1391164,
          19.5282092
        ]
      },
      "properties": {
        "id": "006-2",
        "alcaldia": "Gustavo A. Madero",
        "start": null,
        "end": null,
        "kind": "tandeo",
        "reason": "Programa de agua por tandeo durante noviembre",
        "confidence": 1.0,
        "source_title": "Estas son las colonias de la CDMX que se quedarán sin agua durante el mes de noviembre",
        "source_id": "006",
        "colonia": "La Pastora",
        "colonias": [
          "Ampliación Arboledas Cuautepec",
          "Ampliación Pradera",
          "La Casilla",
          "La Pastora",
          "La Providencia",
          "Ampliación Malacates",
          "Cuautepec Centro",
          "Luis Donaldo Colosio M"
        ]
      }
    },
    {
      "type": "Feature",
      "geometry": {
        "type": "Point",
        "coordinates": [
          -99.1200806,
          19.4744936
        ]
      },
      "properties": {
        "id": "006-2",
        "alcaldia": "Gustavo A. Madero",
        "start": null,
        "end": null,
        "kind": "tandeo",
        "reason": "Programa de agua por tandeo durante noviembre",
        "confidence": 1.0,
        "source_title": "Estas son las colonias de la CDMX que se quedarán sin agua durante el mes de noviembre",
        "source_id": "006",
        "colonia": "La Providencia",
        "colonias": [
          "Ampliación Arboledas Cuautepec",
          "Ampliación Pradera",
          "La Casilla",
          "La Pastora",
          "La Providencia",
          "Ampliación Malacates",
          "Cuautepec Centro",
          "Luis Donaldo Colosio M"
        ]
      }
    },
    {
      "type": "Feature",
      "geometry": {
        "type": "Point",
        "coordinates": [
          -99.1308155,
          19.5763052
        ]
      },
      "properties": {
        "id": "006-2",
        "alcaldia": "Gustavo A. Madero",
        "start": null,
        "end": null,
        "kind": "tandeo",
        "reason": "Programa de agua por tandeo durante noviembre",
        "confidence": 1.0,
        "source_title": "Estas son las colonias de la CDMX que se quedarán sin agua durante el mes de noviembre",
        "source_id": "006",
        "colonia": "Ampliación Malacates",
        "colonias": [
          "Ampliación Arboledas Cuautepec",
          "Ampliación Pradera",
          "La Casilla",
          "La Pastora",
          "La Providencia",
          "Ampliación Malacates",
          "Cuautepec Centro",
          "Luis Donaldo Colosio M"
        ]
      }
    },
    {
      "type": "Feature",
      "geometry": {
        "type": "Point",
        "coordinates": [
          -99.1425621,
          19.5595246
        ]
      },
      "properties": {
        "id": "006-2",
        "alcaldia": "Gustavo A. Madero",
        "start": null,
        "end": null,
        "kind": "tandeo",
        "reason": "Programa de agua por tandeo durante noviembre",
        "confidence": 1.0,
        "source_title": "Estas son las colonias de la CDMX que se quedarán sin agua durante el mes de noviembre",
        "source_id": "006",
        "colonia": "Cuautepec Centro",
        "colonias": [
          "Ampliación Arboledas Cuautepec",
          "Ampliación Pradera",
          "La Casilla",
          "La Pastora",
          "La Providencia",
          "Ampliación Malacates",
          "Cuautepec Centro",
          "Luis Donaldo Colosio M"
        ]
      }
    },
    {
      "type": "Feature",
      "geometry": {
        "type": "Point",
        "coordinates": [
          -99.1457052,
          19.5621346
        ]
      },
      "properties": {
        "id": "006-2",
        "alcaldia": "Gustavo A. Madero",
        "start": null,
        "end": null,
        "kind": "tandeo",
        "reason": "Programa de agua por tandeo durante noviembre",
        "confidence": 1.0,
        "source_title": "Estas son las colonias de la CDMX que se quedarán sin agua durante el mes de noviembre",
        "source_id": "006",
        "colonia": "Luis Donaldo Colosio M",
        "colonias": [
          "Ampliación Arboledas Cuautepec",
          "Ampliación Pradera",
          "La Casilla",
          "La Pastora",
          "La Providencia",
          "Ampliación Malacates",
          "Cuautepec Centro",
          "Luis Donaldo Colosio M"
        ]
      }
    },
    {
      "type": "Feature",
      "geometry": {
        "type": "Point",
        "coordinates": [
          -99.0271285,
          19.3131107
        ]
      },
      "properties": {
        "id": "006-3",
        "alcaldia": "Tláhuac",
        "start": null,
        "end": null,
        "kind": "tandeo",
        "reason": "Programa de agua por tandeo durante noviembre",
        "confidence": 1.0,
        "source_title": "Estas son las colonias de la CDMX que se quedarán sin agua durante el mes de noviembre",
        "source_id": "006",
        "colonia": "Ampliación José López Portillo",
        "colonias": [
          "Ampliación José López Portillo",
          "Selene",
          "El Rosario",
          "Jaime Torres Bodet",
          "Peña Alta",
          "Tierra Blanca",
          "La Habana",
          "Santa Cecilia"
        ]
      }
    },
    {
      "type": "Feature",
      "geometry": {
        "type": "Point",
        "coordinates": [
          -98.9999315,
          19.3039856
        ]
      },
      "properties": {
        "id": "006-3",
        "alcaldia": "Tláhuac",
        "start": null,
        "end": null,
        "kind": "tandeo",
        "reason": "Programa de agua por tandeo durante noviembre",
        "confidence": 1.0,
        "source_title": "Estas son las colonias de la CDMX que se quedarán sin agua durante el mes de noviembre",
        "source_id": "006",
        "colonia": "Selene",
        "colonias": [
          "Ampliación José López Portillo",
          "Selene",
          "El Rosario",
          "Jaime Torres Bodet",
          "Peña Alta",
          "Tierra Blanca",
          "La Habana",
          "Santa Cecilia"
        ]
      }
    },
    {
      "type": "Feature",
      "geometry": {
        "type": "Point",
        "coordinates": [
          -99.0101925,
          19.234988
        ]
      },
      "properties": {
        "id": "006-3",
        "alcaldia": "Tláhuac",
        "start": null,
        "end": null,
        "kind": "tandeo",
        "reason": "Programa de agua por tandeo durante noviembre",
        "confidence": 1.0,
        "source_title": "Estas son las colonias de la CDMX que se quedarán sin agua durante el mes de noviembre",
        "source_id": "006",
        "colonia": "El Rosario",
        "colonias": [
          "Ampliación José López Portillo",
          "Selene",
          "El Rosario",
          "Jaime Torres Bodet",
          "Peña Alta",
          "Tierra Blanca",
          "La Habana",
          "Santa Cecilia"
        ]
      }
    },
    {
      "type": "Feature",
      "geometry": {
        "type": "Point",
        "coordinates": [
          -98.9963971,
          19.2304267
        ]
      },
      "properties": {
        "id": "006-3",
        "alcaldia": "Tláhuac",
        "start": null,
        "end": null,
        "kind": "tandeo",
        "reason": "Programa de agua por tandeo durante noviembre",
        "confidence": 1.0,
        "source_title": "Estas son las colonias de la CDMX que se quedarán sin agua durante el mes de noviembre",
        "source_id": "006",
        "colonia": "Jaime Torres Bodet",
        "colonias": [
          "Ampliación José López Portillo",
          "Selene",
          "El Rosario",
          "Jaime Torres Bodet",
          "Peña Alta",
          "Tierra Blanca",
          "La Habana",
          "Santa Cecilia"
        ]
      }
    },
    {
      "type": "Feature",
      "geometry": {
        "type": "Point",
        "coordinates": [
          -99.0071458,
          19.2260378
        ]
      },
      "properties": {
        "id": "006-3",
        "alcaldia": "Tláhuac",
        "start": null,
        "end": null,
        "kind": "tandeo",
        "reason": "Programa de agua por tandeo durante noviembre",
        "confidence": 1.0,
        "source_title": "Estas son las colonias de la CDMX que se quedarán sin agua durante el mes de noviembre",
        "source_id": "006",
        "colonia": "Peña Alta",
        "colonias": [
          "Ampliación José López Portillo",
          "Selene",
          "El Rosario",
          "Jaime Torres Bodet",
          "Peña Alta",
          "Tierra Blanca",
          "La Habana",
          "Santa Cecilia"
        ]
      }
    },
    {
      "type": "Feature",
      "geometry": {
        "type": "Point",
        "coordinates": [
          -99.0096372,
          19.2324998
        ]
      },
      "properties": {
        "id": "006-3",
        "alcaldia": "Tláhuac",
        "start": null,
        "end": null,
        "kind": "tandeo",
        "reason": "Programa de agua por tandeo durante noviembre",
        "confidence": 1.0,
        "source_title": "Estas son las colonias de la CDMX que se quedarán sin agua durante el mes de noviembre",
        "source_id": "006",
        "colonia": "Tierra Blanca",
        "colonias": [
          "Ampliación José López Portillo",
          "Selene",
          "El Rosario",
          "Jaime Torres Bodet",
          "Peña Alta",
          "Tierra Blanca",
          "La Habana",
          "Santa Cecilia"
        ]
      }
    },
    {
      "type": "Feature",
      "geometry": {
        "type": "Point",
        "coordinates": [
          -98.9755048,
          19.2527384
        ]
      },
      "properties": {
        "id": "006-3",
        "alcaldia": "Tláhuac",
        "start": null,
        "end": null,
        "kind": "tandeo",
        "reason": "Programa de agua por tandeo durante noviembre",
        "confidence": 1.0,
        "source_title": "Estas son las colonias de la CDMX que se quedarán sin agua durante el mes de noviembre",
        "source_id": "006",
        "colonia": "La Habana",
        "colonias": [
          "Ampliación José López Portillo",
          "Selene",
          "El Rosario",
          "Jaime Torres Bodet",
          "Peña Alta",
          "Tierra Blanca",
          "La Habana",
          "Santa Cecilia"
        ]
      }
    },
    {
      "type": "Feature",
      "geometry": {
        "type": "Point",
        "coordinates": [
          -99.0063474,
          19.2791062
        ]
      },
      "properties": {
        "id": "006-3",
        "alcaldia": "Tláhuac",
        "start": null,
        "end": null,
        "kind": "tandeo",
        "reason": "Programa de agua por tandeo durante noviembre",
        "confidence": 1.0,
        "source_title": "Estas son las colonias de la CDMX que se quedarán sin agua durante el mes de noviembre",
        "source_id": "006",
        "colonia": "Santa Cecilia",
        "colonias": [
          "Ampliación José López Portillo",
          "Selene",
          "El Rosario",
          "Jaime Torres Bodet",
          "Peña Alta",
          "Tierra Blanca",
          "La Habana",
          "Santa Cecilia"
        ]
      }
    },
    {
      "type": "Feature",
      "geometry": {
        "type": "Point",
        "coordinates": [
          -99.2047491,
          19.4751706
        ]
      },
      "properties": {
        "id": "008-0",
        "alcaldia": "Azcapotzalco",
        "start": null,
        "end": "2025-12-24T23:59:59-06:00",
        "kind": "suspension",
        "reason": "Trabajos de rehabilitación en el pozo San Miguel Amantla",
        "confidence": 1.0,
        "source_title": "Corte de agua en CDMX: estas colonias se quedarán sin suministro antes de Navidad",
        "source_id": "008",
        "colonia": "San Miguel Amantla",
        "colonias": [
          "San Miguel Amantla",
          "Plenitud"
        ]
      }
    },
    {
      "type": "Feature",
      "geometry": {
        "type": "Point",
        "coordinates": [
          -99.1968801,
          19.4735099
        ]
      },
      "properties": {
        "id": "008-0",
        "alcaldia": "Azcapotzalco",
        "start": null,
        "end": "2025-12-24T23:59:59-06:00",
        "kind": "suspension",
        "reason": "Trabajos de rehabilitación en el pozo San Miguel Amantla",
        "confidence": 1.0,
        "source_title": "Corte de agua en CDMX: estas colonias se quedarán sin suministro antes de Navidad",
        "source_id": "008",
        "colonia": "Plenitud",
        "colonias": [
          "San Miguel Amantla",
          "Plenitud"
        ]
      }
    },
    {
      "type": "Feature",
      "geometry": {
        "type": "Point",
        "coordinates": [
          -99.2018448,
          19.4958756
        ]
      },
      "properties": {
        "id": "009-0",
        "alcaldia": "Azcapotzalco",
        "start": null,
        "end": "2026-06-30T23:59:59-06:00",
        "kind": "baja_presion",
        "reason": "Reparación de la bomba del Pozo Presidente Madero",
        "confidence": 1.0,
        "source_title": "Cortes de agua en CdMx: colonias y afectadas hasta 30 de junio- Grupo Milenio",
        "source_id": "009",
        "colonia": "Presidente Madero",
        "colonias": [
          "Presidente Madero",
          "Miguel Hidalgo",
          "San Juan Tlihuaca",
          "Tezozomoc"
        ]
      }
    },
    {
      "type": "Feature",
      "geometry": {
        "type": "Point",
        "coordinates": [
          -99.1988243,
          19.4937154
        ]
      },
      "properties": {
        "id": "009-0",
        "alcaldia": "Azcapotzalco",
        "start": null,
        "end": "2026-06-30T23:59:59-06:00",
        "kind": "baja_presion",
        "reason": "Reparación de la bomba del Pozo Presidente Madero",
        "confidence": 1.0,
        "source_title": "Cortes de agua en CdMx: colonias y afectadas hasta 30 de junio- Grupo Milenio",
        "source_id": "009",
        "colonia": "Miguel Hidalgo",
        "colonias": [
          "Presidente Madero",
          "Miguel Hidalgo",
          "San Juan Tlihuaca",
          "Tezozomoc"
        ]
      }
    },
    {
      "type": "Feature",
      "geometry": {
        "type": "Point",
        "coordinates": [
          -99.20495,
          19.4923006
        ]
      },
      "properties": {
        "id": "009-0",
        "alcaldia": "Azcapotzalco",
        "start": null,
        "end": "2026-06-30T23:59:59-06:00",
        "kind": "baja_presion",
        "reason": "Reparación de la bomba del Pozo Presidente Madero",
        "confidence": 1.0,
        "source_title": "Cortes de agua en CdMx: colonias y afectadas hasta 30 de junio- Grupo Milenio",
        "source_id": "009",
        "colonia": "San Juan Tlihuaca",
        "colonias": [
          "Presidente Madero",
          "Miguel Hidalgo",
          "San Juan Tlihuaca",
          "Tezozomoc"
        ]
      }
    },
    {
      "type": "Feature",
      "geometry": {
        "type": "Point",
        "coordinates": [
          -99.1960298,
          19.4949382
        ]
      },
      "properties": {
        "id": "009-0",
        "alcaldia": "Azcapotzalco",
        "start": null,
        "end": "2026-06-30T23:59:59-06:00",
        "kind": "baja_presion",
        "reason": "Reparación de la bomba del Pozo Presidente Madero",
        "confidence": 1.0,
        "source_title": "Cortes de agua en CdMx: colonias y afectadas hasta 30 de junio- Grupo Milenio",
        "source_id": "009",
        "colonia": "Tezozomoc",
        "colonias": [
          "Presidente Madero",
          "Miguel Hidalgo",
          "San Juan Tlihuaca",
          "Tezozomoc"
        ]
      }
    },
    {
      "type": "Feature",
      "geometry": {
        "type": "Point",
        "coordinates": [
          -99.1688607,
          19.3838913
        ]
      },
      "properties": {
        "id": "011-0",
        "alcaldia": "Benito Juárez",
        "start": null,
        "end": "2026-01-14T23:59:59-06:00",
        "kind": "suspension",
        "reason": "Reparación de una fuga en la red",
        "confidence": 1.0,
        "source_title": "Corte de agua en CDMX: colonias se quedan sin servicio",
        "source_id": "011",
        "colonia": "Del Valle",
        "colonias": [
          "Del Valle",
          "Narvarte",
          "Nápoles",
          "Mixcoac"
        ]
      }
    },
    {
      "type": "Feature",
      "geometry": {
        "type": "Point",
        "coordinates": [
          -99.1513127,
          19.391616
        ]
      },
      "properties": {
        "id": "011-0",
        "alcaldia": "Benito Juárez",
        "start": null,
        "end": "2026-01-14T23:59:59-06:00",
        "kind": "suspension",
        "reason": "Reparación de una fuga en la red",
        "confidence": 1.0,
        "source_title": "Corte de agua en CDMX: colonias se quedan sin servicio",
        "source_id": "011",
        "colonia": "Narvarte",
        "colonias": [
          "Del Valle",
          "Narvarte",
          "Nápoles",
          "Mixcoac"
        ]
      }
    },
    {
      "type": "Feature",
      "geometry": {
        "type": "Point",
        "coordinates": [
          -99.1738081,
          19.3896634
        ]
      },
      "properties": {
        "id": "011-0",
        "alcaldia": "Benito Juárez",
        "start": null,
        "end": "2026-01-14T23:59:59-06:00",
        "kind": "suspension",
        "reason": "Reparación de una fuga en la red",
        "confidence": 1.0,
        "source_title": "Corte de agua en CDMX: colonias se quedan sin servicio",
        "source_id": "011",
        "colonia": "Nápoles",
        "colonias": [
          "Del Valle",
          "Narvarte",
          "Nápoles",
          "Mixcoac"
        ]
      }
    },
    {
      "type": "Feature",
      "geometry": {
        "type": "Point",
        "coordinates": [
          -99.1876125,
          19.3762376
        ]
      },
      "properties": {
        "id": "011-0",
        "alcaldia": "Benito Juárez",
        "start": null,
        "end": "2026-01-14T23:59:59-06:00",
        "kind": "suspension",
        "reason": "Reparación de una fuga en la red",
        "confidence": 1.0,
        "source_title": "Corte de agua en CDMX: colonias se quedan sin servicio",
        "source_id": "011",
        "colonia": "Mixcoac",
        "colonias": [
          "Del Valle",
          "Narvarte",
          "Nápoles",
          "Mixcoac"
        ]
      }
    }
  ]
}